[{"OBJECT_NAME":"STARLINK-31050","OBJECT_ID":"2023-192R","EPOCH":"2026-03-09T08:58:46.718976","MEAN_MOTION":15.30181401,"ECCENTRICITY":0.00013676,"INCLINATION":53.1604,"RA_OF_ASC_NODE":64.4434,"ARG_OF_PERICENTER":103.7803,"MEAN_ANOMALY":256.335,"EPHEMERIS_TYPE":0,"CLASSIFICATION_TYPE":"U","NORAD_CAT_ID":58546,"ELEMENT_SET_NO":999,"REV_AT_EPOCH":12593,"BSTAR":-5.119229e-5,"MEAN_MOTION_DOT":-1.874e-5,"MEAN_MOTION_DDOT":0},{"OBJECT_NAME":"OBJECT A","OBJECT_ID":"2024-018A","EPOCH":"2026-03-09T23:31:34.722336","MEAN_MOTION":14.39019523,"ECCENTRICITY":0.04318583,"INCLINATION":58.6872,"RA_OF_ASC_NODE":217.3493,"ARG_OF_PERICENTER":349.6639,"MEAN_ANOMALY":9.5713,"EPHEMERIS_TYPE":0,"CLASSIFICATION_TYPE":"U","NORAD_CAT_ID":58849,"ELEMENT_SET_NO":999,"REV_AT_EPOCH":11089,"BSTAR":0.00018648837,"MEAN_MOTION_DOT":1.516e-5,"MEAN_MOTION_DDOT":0}]
